ONEWEB-0228             
1 48780U 21045P   23270.53674561  .00000010  00000+0 -76290-5 0  9990
2 48780  87.8933  97.0306 0001872  85.2947 274.8397 13.15546494113686
